[{"OBJECT_NAME":"STARLINK-32950","OBJECT_ID":"2025-075U","EPOCH":"2026-03-09T21:41:44.354976","MEAN_MOTION":15.27601366,"ECCENTRICITY":0.00017328,"INCLINATION":42.9998,"RA_OF_ASC_NODE":269.058,"ARG_OF_PERICENTER":259.9137,"MEAN_ANOMALY":100.152,"EPHEMERIS_TYPE":0,"CLASSIFICATION_TYPE":"U","NORAD_CAT_ID":63566,"ELEMENT_SET_NO":999,"REV_AT_EPOCH":5196,"BSTAR":0.001339917,"MEAN_MOTION_DOT":0.00036818,"MEAN_MOTION_DDOT":0},{"OBJECT_NAME":"ARIANE 40 R\/B","OBJECT_ID":"1999-064C","EPOCH":"2026-03-09T18:24:37.025280","MEAN_MOTION":15.31364882,"ECCENTRICITY":0.00050095,"INCLINATION":98.1631,"RA_OF_ASC_NODE":150.8872,"ARG_OF_PERICENTER":91.4057,"MEAN_ANOMALY":268.7755,"EPHEMERIS_TYPE":0,"CLASSIFICATION_TYPE":"U","NORAD_CAT_ID":25979,"ELEMENT_SET_NO":999,"REV_AT_EPOCH":42869,"BSTAR":0.00066758353,"MEAN_MOTION_DOT":0.00020173,"MEAN_MOTION_DDOT":0}]
